{
  "type": "FeatureCollection",
  "features": [
    {
      "type": "Feature",
      "properties": {
        "norad_id": 67046,
        "name": "STARLINK-35721",
        "group": "last-30-days",
        "lat": -42.271531593747994,
        "lon": 9.497624961661163,
        "alt_km": 345.27927108777567,
        "timestamp": "2025-12-24T03:53:28.364749+00:00",
        "meta_object_name": "STARLINK-35721",
        "meta_object_id": "2025-294S",
        "meta_epoch": "2025-12-23T20:00:01.000224",
        "meta_mean_motion": 15.76919792,
        "meta_eccentricity": 0.0001378,
        "meta_inclination": 43.0002,
        "meta_ra_of_asc_node": 114.202,
        "meta_arg_of_pericenter": 282.9106,
        "meta_mean_anomaly": 269.7444,
        "meta_ephemeris_type": 0,
        "meta_classification_type": "U",
        "meta_norad_cat_id": 67046,
        "meta_element_set_no": 999,
        "meta_rev_at_epoch": 208,
        "meta_bstar": -0.012904,
        "meta_mean_motion_dot": -0.01878092,
        "meta_mean_motion_ddot": 0,
        "tle_line1": "1 67046U 25294S   25357.83334491 -.01878092  00000+0 -12904-1 0  9995",
        "tle_line2": "2 67046  43.0002 114.2020 0001378 282.9106 269.7444 15.76919792  2083"
      },
      "geometry": {
        "type": "Point",
        "coordinates": [
          9.497624961661163,
          -42.271531593747994
        ]
      }
    },
    {
      "type": "Feature",
      "properties": {
        "norad_id": 67047,
        "name": "STARLINK-35779",
        "group": "last-30-days",
        "lat": -42.58380165919228,
        "lon": 12.685739073089954,
        "alt_km": 345.43002614865145,
        "timestamp": "2025-12-24T03:53:28.364762+00:00",
        "meta_object_name": "STARLINK-35779",
        "meta_object_id": "2025-294T",
        "meta_epoch": "2025-12-23T20:00:01.000224",
        "meta_mean_motion": 15.76902857,
        "meta_eccentricity": 0.0001199,
        "meta_inclination": 43.0001,
        "meta_ra_of_asc_node": 114.1963,
        "meta_arg_of_pericenter": 280.0615,
        "meta_mean_anomaly": 274.9969,
        "meta_ephemeris_type": 0,
        "meta_classification_type": "U",
        "meta_norad_cat_id": 67047,
        "meta_element_set_no": 999,
        "meta_rev_at_epoch": 189,
        "meta_bstar": -0.01298,
        "meta_mean_motion_dot": -0.01886311,
        "meta_mean_motion_ddot": 0,
        "tle_line1": "1 67047U 25294T   25357.83334491 -.01886311  00000+0 -12980-1 0  9993",
        "tle_line2": "2 67047  43.0001 114.1963 0001199 280.0615 274.9969 15.76902857  1895"
      },
      "geometry": {
        "type": "Point",
        "coordinates": [
          12.685739073089954,
          -42.58380165919228
        ]
      }
    },
    {
      "type": "Feature",
      "properties": {
        "norad_id": 67048,
        "name": "STARLINK-35905",
        "group": "last-30-days",
        "lat": -42.774140951150976,
        "lon": 15.332473837596009,
        "alt_km": 345.45882832401276,
        "timestamp": "2025-12-24T03:53:28.364772+00:00",
        "meta_object_name": "STARLINK-35905",
        "meta_object_id": "2025-294U",
        "meta_epoch": "2025-12-23T20:00:01.000224",
        "meta_mean_motion": 15.76902062,
        "meta_eccentricity": 0.0001163,
        "meta_inclination": 43.0003,
        "meta_ra_of_asc_node": 114.1913,
        "meta_arg_of_pericenter": 280.942,
        "meta_mean_anomaly": 276.079,
        "meta_ephemeris_type": 0,
        "meta_classification_type": "U",
        "meta_norad_cat_id": 67048,
        "meta_element_set_no": 999,
        "meta_rev_at_epoch": 200,
        "meta_bstar": -0.012984,
        "meta_mean_motion_dot": -0.01886697,
        "meta_mean_motion_ddot": 0,
        "tle_line1": "1 67048U 25294U   25357.83334491 -.01886697  00000+0 -12984-1 0  9995",
        "tle_line2": "2 67048  43.0003 114.1913 0001163 280.9420 276.0790 15.76902062  2004"
      },
      "geometry": {
        "type": "Point",
        "coordinates": [
          15.332473837596009,
          -42.774140951150976
        ]
      }
    },
    {
      "type": "Feature",
      "properties": {
        "norad_id": 67049,
        "name": "STARLINK-35877",
        "group": "last-30-days",
        "lat": -42.918773383020856,
        "lon": 18.455402508096522,
        "alt_km": 345.3670115745663,
        "timestamp": "2025-12-24T03:53:28.364782+00:00",
        "meta_object_name": "STARLINK-35877",
        "meta_object_id": "2025-294V",
        "meta_epoch": "2025-12-23T20:00:01.000224",
        "meta_mean_motion": 15.76880238,
        "meta_eccentricity": 0.0001357,
        "meta_inclination": 43.0003,
        "meta_ra_of_asc_node": 114.1855,
        "meta_arg_of_pericenter": 280.457,
        "meta_mean_anomaly": 278.8878,
        "meta_ephemeris_type": 0,
        "meta_classification_type": "U",
        "meta_norad_cat_id": 67049,
        "meta_element_set_no": 999,
        "meta_rev_at_epoch": 208,
        "meta_bstar": -0.012932,
        "meta_mean_motion_dot": -0.01878707,
        "meta_mean_motion_ddot": 0,
        "tle_line1": "1 67049U 25294V   25357.83334491 -.01878707  00000+0 -12932-1 0  9992",
        "tle_line2": "2 67049  43.0003 114.1855 0001357 280.4570 278.8878 15.76880238  2081"
      },
      "geometry": {
        "type": "Point",
        "coordinates": [
          18.455402508096522,
          -42.918773383020856
        ]
      }
    },
    {
      "type": "Feature",
      "properties": {
        "norad_id": 67050,
        "name": "STARLINK-36078",
        "group": "last-30-days",
        "lat": -42.97800831290825,
        "lon": 21.612083707008953,
        "alt_km": 345.47501618836304,
        "timestamp": "2025-12-24T03:53:28.364792+00:00",
        "meta_object_name": "STARLINK-36078",
        "meta_object_id": "2025-294W",
        "meta_epoch": "2025-12-23T20:00:01.000224",
        "meta_mean_motion": 15.76861999,
        "meta_eccentricity": 0.000128,
        "meta_inclination": 43.0003,
        "meta_ra_of_asc_node": 114.1796,
        "meta_arg_of_pericenter": 281.2998,
        "meta_mean_anomaly": 280.3874,
        "meta_ephemeris_type": 0,
        "meta_classification_type": "U",
        "meta_norad_cat_id": 67050,
        "meta_element_set_no": 999,
        "meta_rev_at_epoch": 200,
        "meta_bstar": -0.012977,
        "meta_mean_motion_dot": -0.01882994,
        "meta_mean_motion_ddot": 0,
        "tle_line1": "1 67050U 25294W   25357.83334491 -.01882994  00000+0 -12977-1 0  9996",
        "tle_line2": "2 67050  43.0003 114.1796 0001280 281.2998 280.3874 15.76861999  2004"
      },
      "geometry": {
        "type": "Point",
        "coordinates": [
          21.612083707008953,
          -42.97800831290825
        ]
      }
    },
    {
      "type": "Feature",
      "properties": {
        "norad_id": 67051,
        "name": "STARLINK-35706",
        "group": "last-30-days",
        "lat": -42.950497677718815,
        "lon": 24.752368474248335,
        "alt_km": 345.4529061240619,
        "timestamp": "2025-12-24T03:53:28.364806+00:00",
        "meta_object_name": "STARLINK-35706",
        "meta_object_id": "2025-294X",
        "meta_epoch": "2025-12-23T20:00:01.000224",
        "meta_mean_motion": 15.7684476,
        "meta_eccentricity": 0.0001369,
        "meta_inclination": 43.0003,
        "meta_ra_of_asc_node": 114.1735,
        "meta_arg_of_pericenter": 280.2106,
        "meta_mean_anomaly": 283.8034,
        "meta_ephemeris_type": 0,
        "meta_classification_type": "U",
        "meta_norad_cat_id": 67051,
        "meta_element_set_no": 999,
        "meta_rev_at_epoch": 208,
        "meta_bstar": -0.013003,
        "meta_mean_motion_dot": -0.01885067,
        "meta_mean_motion_ddot": 0,
        "tle_line1": "1 67051U 25294X   25357.83334491 -.01885067  00000+0 -13003-1 0  9992",
        "tle_line2": "2 67051  43.0003 114.1735 0001369 280.2106 283.8034 15.76844760  2087"
      },
      "geometry": {
        "type": "Point",
        "coordinates": [
          24.752368474248335,
          -42.950497677718815
        ]
      }
    },
    {
      "type": "Feature",
      "properties": {
        "norad_id": 67052,
        "name": "STARLINK-35720",
        "group": "last-30-days",
        "lat": -42.857895602493244,
        "lon": 27.450785607442977,
        "alt_km": 345.42982351892715,
        "timestamp": "2025-12-24T03:53:28.364817+00:00",
        "meta_object_name": "STARLINK-35720",
        "meta_object_id": "2025-294Y",
        "meta_epoch": "2025-12-23T20:00:01.000224",
        "meta_mean_motion": 15.76842998,
        "meta_eccentricity": 0.0001395,
        "meta_inclination": 43.0003,
        "meta_ra_of_asc_node": 114.1686,
        "meta_arg_of_pericenter": 279.5328,
        "meta_mean_anomaly": 286.4684,
        "meta_ephemeris_type": 0,
        "meta_classification_type": "U",
        "meta_norad_cat_id": 67052,
        "meta_element_set_no": 999,
        "meta_rev_at_epoch": 207,
        "meta_bstar": -0.013012,
        "meta_mean_motion_dot": -0.01886089,
        "meta_mean_motion_ddot": 0,
        "tle_line1": "1 67052U 25294Y   25357.83334491 -.01886089  00000+0 -13012-1 0  9998",
        "tle_line2": "2 67052  43.0003 114.1686 0001395 279.5328 286.4684 15.76842998  2079"
      },
      "geometry": {
        "type": "Point",
        "coordinates": [
          27.450785607442977,
          -42.857895602493244
        ]
      }
    }
  ]
}